{
  "type": "FeatureCollection",
  "features": [
    {
      "type": "Feature",
      "properties": {
        "norad_id": 66876,
        "name": "STARLINK-35702",
        "group": "last-30-days",
        "lat": 35.15930230019102,
        "lon": 123.1841505072951,
        "alt_km": 342.52877504098706,
        "timestamp": "2025-12-20T14:38:00.690325+00:00",
        "meta_object_name": "STARLINK-35702",
        "meta_object_id": "2025-281AE",
        "meta_epoch": "2025-12-20T06:00:02.999808",
        "meta_mean_motion": 15.75436631,
        "meta_eccentricity": 9.376e-05,
        "meta_inclination": 43.001,
        "meta_ra_of_asc_node": 76.2655,
        "meta_arg_of_pericenter": 268.4572,
        "meta_mean_anomaly": 267.5804,
        "meta_ephemeris_type": 0,
        "meta_classification_type": "U",
        "meta_norad_cat_id": 66876,
        "meta_element_set_no": 999,
        "meta_rev_at_epoch": 263,
        "meta_bstar": -0.012617884,
        "meta_mean_motion_dot": -0.01737666,
        "meta_mean_motion_ddot": 0,
        "tle_line1": "1 66876U 25281AE  25354.25003472 -.01737666  00000+0 -12618-1 0  9999",
        "tle_line2": "2 66876  43.0010  76.2655 0000937 268.4572 267.5804 15.75436631  2631"
      },
      "geometry": {
        "type": "Point",
        "coordinates": [
          123.1841505072951,
          35.15930230019102
        ]
      }
    },
    {
      "type": "Feature",
      "properties": {
        "norad_id": 66877,
        "name": "ZQ-3 R/B",
        "group": "last-30-days",
        "lat": 31.121536087549416,
        "lon": -175.97058982794437,
        "alt_km": 621.2936460398605,
        "timestamp": "2025-12-20T14:38:00.690335+00:00",
        "meta_object_name": "ZQ-3 R/B",
        "meta_object_id": "2025-282A",
        "meta_epoch": "2025-12-20T02:32:21.095808",
        "meta_mean_motion": 14.74483052,
        "meta_eccentricity": 0.07170241,
        "meta_inclination": 56.9493,
        "meta_ra_of_asc_node": 29.1516,
        "meta_arg_of_pericenter": 232.8786,
        "meta_mean_anomaly": 120.4648,
        "meta_ephemeris_type": 0,
        "meta_classification_type": "U",
        "meta_norad_cat_id": 66877,
        "meta_element_set_no": 999,
        "meta_rev_at_epoch": 247,
        "meta_bstar": 0.00017040231,
        "meta_mean_motion_dot": 0.00941593,
        "meta_mean_motion_ddot": 7.746076e-06,
        "tle_line1": "1 66877U 25282A   25354.10579972  .00941593  77461-5  17040-3 0  9998",
        "tle_line2": "2 66877  56.9493  29.1516 0717024 232.8786 120.4648 14.74483052  2479"
      },
      "geometry": {
        "type": "Point",
        "coordinates": [
          -175.97058982794437,
          31.121536087549416
        ]
      }
    },
    {
      "type": "Feature",
      "properties": {
        "norad_id": 66878,
        "name": "STARLINK-35866",
        "group": "last-30-days",
        "lat": 51.013642383099416,
        "lon": 146.48286599858127,
        "alt_km": 339.69509866082444,
        "timestamp": "2025-12-20T14:38:00.690345+00:00",
        "meta_object_name": "STARLINK-35866",
        "meta_object_id": "2025-283A",
        "meta_epoch": "2025-12-20T06:00:02.999808",
        "meta_mean_motion": 15.7426444,
        "meta_eccentricity": 7.44e-05,
        "meta_inclination": 53.1575,
        "meta_ra_of_asc_node": 36.1455,
        "meta_arg_of_pericenter": 82.5505,
        "meta_mean_anomaly": 141.4954,
        "meta_ephemeris_type": 0,
        "meta_classification_type": "U",
        "meta_norad_cat_id": 66878,
        "meta_element_set_no": 999,
        "meta_rev_at_epoch": 363,
        "meta_bstar": -0.001039165,
        "meta_mean_motion_dot": -0.00150614,
        "meta_mean_motion_ddot": 0,
        "tle_line1": "1 66878U 25283A   25354.25003472 -.00150614  00000+0 -10392-2 0  9992",
        "tle_line2": "2 66878  53.1575  36.1455 0000744  82.5505 141.4954 15.74264440  3634"
      },
      "geometry": {
        "type": "Point",
        "coordinates": [
          146.48286599858127,
          51.013642383099416
        ]
      }
    },
    {
      "type": "Feature",
      "properties": {
        "norad_id": 66879,
        "name": "STARLINK-35749",
        "group": "last-30-days",
        "lat": 49.71610103330151,
        "lon": 152.1446599200443,
        "alt_km": 339.5296666586373,
        "timestamp": "2025-12-20T14:38:00.690356+00:00",
        "meta_object_name": "STARLINK-35749",
        "meta_object_id": "2025-283B",
        "meta_epoch": "2025-12-20T06:00:02.999808",
        "meta_mean_motion": 15.74213426,
        "meta_eccentricity": 0.00013206,
        "meta_inclination": 53.1574,
        "meta_ra_of_asc_node": 36.1377,
        "meta_arg_of_pericenter": 78.0529,
        "meta_mean_anomaly": 149.8485,
        "meta_ephemeris_type": 0,
        "meta_classification_type": "U",
        "meta_norad_cat_id": 66879,
        "meta_element_set_no": 999,
        "meta_rev_at_epoch": 363,
        "meta_bstar": -0.00043629438,
        "meta_mean_motion_dot": -0.0006411,
        "meta_mean_motion_ddot": 0,
        "tle_line1": "1 66879U 25283B   25354.25003472 -.00064110  00000+0 -43629-3 0  9998",
        "tle_line2": "2 66879  53.1574  36.1377 0001320  78.0529 149.8485 15.74213426  3633"
      },
      "geometry": {
        "type": "Point",
        "coordinates": [
          152.1446599200443,
          49.71610103330151
        ]
      }
    },
    {
      "type": "Feature",
      "properties": {
        "norad_id": 66880,
        "name": "STARLINK-35844",
        "group": "last-30-days",
        "lat": 50.397686183943385,
        "lon": 149.36043491220036,
        "alt_km": 339.70647792725686,
        "timestamp": "2025-12-20T14:38:00.690366+00:00",
        "meta_object_name": "STARLINK-35844",
        "meta_object_id": "2025-283C",
        "meta_epoch": "2025-12-20T06:00:02.999808",
        "meta_mean_motion": 15.74228433,
        "meta_eccentricity": 9.414e-05,
        "meta_inclination": 53.1575,
        "meta_ra_of_asc_node": 36.1421,
        "meta_arg_of_pericenter": 67.3084,
        "meta_mean_anomaly": 158.6711,
        "meta_ephemeris_type": 0,
        "meta_classification_type": "U",
        "meta_norad_cat_id": 66880,
        "meta_element_set_no": 999,
        "meta_rev_at_epoch": 363,
        "meta_bstar": -0.00057320208,
        "meta_mean_motion_dot": -0.00083886,
        "meta_mean_motion_ddot": 0,
        "tle_line1": "1 66880U 25283C   25354.25003472 -.00083886  00000+0 -57320-3 0  9994",
        "tle_line2": "2 66880  53.1575  36.1421 0000941  67.3084 158.6711 15.74228433  3635"
      },
      "geometry": {
        "type": "Point",
        "coordinates": [
          149.36043491220036,
          50.397686183943385
        ]
      }
    },
    {
      "type": "Feature",
      "properties": {
        "norad_id": 66881,
        "name": "STARLINK-35860",
        "group": "last-30-days",
        "lat": 48.97011123082594,
        "lon": 154.84639210656138,
        "alt_km": 339.5866277011537,
        "timestamp": "2025-12-20T14:38:00.690387+00:00",
        "meta_object_name": "STARLINK-35860",
        "meta_object_id": "2025-283D",
        "meta_epoch": "2025-12-20T06:00:02.999808",
        "meta_mean_motion": 15.74201644,
        "meta_eccentricity": 0.00012717,
        "meta_inclination": 53.1574,
        "meta_ra_of_asc_node": 36.1334,
        "meta_arg_of_pericenter": 98.3295,
        "meta_mean_anomaly": 131.498,
        "meta_ephemeris_type": 0,
        "meta_classification_type": "U",
        "meta_norad_cat_id": 66881,
        "meta_element_set_no": 999,
        "meta_rev_at_epoch": 363,
        "meta_bstar": -0.00036234054,
        "meta_mean_motion_dot": -0.0005339,
        "meta_mean_motion_ddot": 0,
        "tle_line1": "1 66881U 25283D   25354.25003472 -.00053390  00000+0 -36234-3 0  9993",
        "tle_line2": "2 66881  53.1574  36.1334 0001271  98.3295 131.4980 15.74201644  3635"
      },
      "geometry": {
        "type": "Point",
        "coordinates": [
          154.84639210656138,
          48.97011123082594
        ]
      }
    },
    {
      "type": "Feature",
      "properties": {
        "norad_id": 66882,
        "name": "STARLINK-35912",
        "group": "last-30-days",
        "lat": 48.16028145447082,
        "lon": 157.47415737740835,
        "alt_km": 339.9529416028945,
        "timestamp": "2025-12-20T14:38:00.690401+00:00",
        "meta_object_name": "STARLINK-35912",
        "meta_object_id": "2025-283E",
        "meta_epoch": "2025-12-20T06:00:02.999808",
        "meta_mean_motion": 15.74187921,
        "meta_eccentricity": 0.00010548,
        "meta_inclination": 53.1575,
        "meta_ra_of_asc_node": 36.1302,
        "meta_arg_of_pericenter": 75.4028,
        "meta_mean_anomaly": 156.3445,
        "meta_ephemeris_type": 0,
        "meta_classification_type": "U",
        "meta_norad_cat_id": 66882,
        "meta_element_set_no": 999,
        "meta_rev_at_epoch": 363,
        "meta_bstar": -0.00020497943,
        "meta_mean_motion_dot": -0.00030538,
        "meta_mean_motion_ddot": 0,
        "tle_line1": "1 66882U 25283E   25354.25003472 -.00030538  00000+0 -20498-3 0  9998",
        "tle_line2": "2 66882  53.1575  36.1302 0001054  75.4028 156.3445 15.74187921  3634"
      },
      "geometry": {
        "type": "Point",
        "coordinates": [
          157.47415737740835,
          48.16028145447082
        ]
      }
    }
  ]
}